OBJECT_NAME,OBJECT_ID,EPOCH,MEAN_MOTION,ECCENTRICITY,INCLINATION,RA_OF_ASC_NODE,ARG_OF_PERICENTER,MEAN_ANOMALY,EPHEMERIS_TYPE,CLASSIFICATION_TYPE,NORAD_CAT_ID,ELEMENT_SET_NO,REV_AT_EPOCH,BSTAR,MEAN_MOTION_DOT,MEAN_MOTION_DDOT
AGILA,2024-252C,2026-06-19T20:26:34.517760,1.00271225,.0001227,0.0631,124.0672,335.8488,266.9535,0,U,62456,999,518,0,-.187E-5,0
NUVIEW BRAVO,2024-252D,2026-06-19T12:28:54.511968,1.00271888,.00020031,0.0730,148.3355,335.0483,248.4616,0,U,62457,999,381,0,-.221E-5,0
THURAYA-4,2025-001A,2026-06-19T19:55:47.018784,1.00272692,.00001334,0.0257,66.7781,235.5501,308.9669,0,U,62483,999,420,0,.134E-5,0
SHIJIAN-25 (SJ-25),2025-002A,2026-06-19T18:03:34.665120,1.00262116,.0052036,5.1202,61.1532,173.4051,71.5038,0,U,62485,999,538,0,-.358E-5,0
TJS-14,2025-017A,2026-06-19T19:48:25.226208,1.00275774,.00008798,0.7755,295.8382,282.1687,5.5719,0,U,62804,999,529,0,.11E-5,0
SPAINSAT NG I,2025-021A,2026-06-19T19:51:24.938208,1.00272257,.00001687,0.0193,359.2101,183.9939,51.6877,0,U,62852,999,401,0,.146E-5,0
QZS-6 (MICHIBIKI-6),2025-023A,2026-06-19T22:54:19.338336,1.00270132,.00018714,0.0603,73.3312,19.6281,249.3015,0,U,62876,999,497,0,-.238E-5,0
ZHONGXING-10R,2025-036A,2026-06-19T22:57:22.960800,1.00270711,.00035879,0.0050,242.7520,256.0495,224.2520,0,U,63075,999,498,0,-.357E-5,0
TJS-15,2025-045A,2026-06-19T18:25:25.355712,1.00270698,.0004637,0.2929,85.4692,298.6464,254.6176,0,U,63157,999,478,0,-.27E-5,0
TIANLIAN 2-04,2025-062A,2026-06-19T23:08:55.849056,1.00271962,.00315759,4.3664,274.4008,10.3984,50.6734,0,U,63361,999,463,0,-.14E-5,0
TJS-16,2025-064A,2026-06-19T17:03:41.188896,1.00271600,.0003316,1.1057,81.4481,291.9066,311.1070,0,U,63397,999,441,0,-.111E-5,0
TJS-17,2025-073A,2026-06-19T17:04:48.581760,1.00272517,.0002058,1.0716,82.6782,300.7675,305.2332,0,U,63524,999,431,0,-.75E-6,0
TIANLIAN 2-05,2025-084A,2026-06-19T18:02:14.306208,1.00271979,.00031747,4.4437,279.8090,148.7420,130.3217,0,U,63662,999,440,0,.118E-5,0
TJS-19,2025-097A,2026-06-19T18:27:50.301216,1.00275756,.0002894,3.2813,317.4993,247.7476,120.8851,0,U,63924,999,417,0,-.282E-5,0
CHINASAT 3B,2025-106A,2026-06-19T22:13:30.734688,1.00270413,.00029961,0.0316,127.6515,356.8767,284.2969,0,U,64062,999,408,0,-.51E-6,0
SXM-10,2025-122A,2026-06-19T20:52:47.004672,1.00271156,.00019683,0.0212,35.1232,328.0516,101.9386,0,U,64290,999,371,0,-.22E-6,0
COSMOS 2589,2025-131A,2026-06-19T18:32:14.432064,1.00271484,.000021,0.0416,86.6775,22.0919,175.2579,0,U,64467,999,358,0,-.296E-5,0
CHINASAT 9C,2025-132A,2026-06-19T20:33:21.854880,1.00273527,.00030461,0.0137,55.1973,31.8968,221.5002,0,U,64470,999,417,0,-.253E-5,0
MTG-S1,2025-143A,2026-06-19T20:28:38.572608,1.00399499,.00008531,0.6006,339.6139,293.0042,299.8767,0,U,64723,999,344,0,-.8E-7,0
DROR 1,2025-148A,2026-06-19T20:28:38.572608,1.00271188,.00026277,0.0425,71.5354,319.0097,180.6755,0,U,64784,999,332,0,-.4E-6,0
SHIYAN-29,2025-196A,2026-06-19T01:20:45.883968,1.00284876,.00125751,28.8236,18.5119,177.3619,186.2317,0,U,65486,999,290,0,-.285E-5,0
NUSANTARA LIMA (NUSANTARA 5),2025-205A,2026-06-19T19:32:21.569856,1.00268357,.00000811,0.0399,170.6518,80.8010,62.5181,0,U,65588,999,274,0,-.363E-5,0
TJS-20,2025-238A,2026-06-19T20:00:59.429952,1.00266954,.00042439,5.4625,299.5501,158.1224,173.0859,0,U,66142,999,235,0,.19E-6,0
CMS-03 (GSAT-7R),2025-249B,2026-06-19T23:00:50.914368,1.00271395,.00016664,0.0132,73.4065,9.7340,244.2288,0,U,66311,999,237,0,-.82E-6,0
VIASAT-3 F2,2025-261A,2026-06-19T21:03:23.488416,1.00270370,.00000479,0.0363,174.4747,277.7870,52.7047,0,U,66454,999,282,0,-.239E-5,0
SHIJIAN-28 (SJ-28),2025-277A,2026-06-19T18:33:48.581280,1.00276308,.00011765,4.5306,272.0937,39.2721,351.8449,0,U,66549,999,218,0,-.365E-5,0
TJS-22,2025-290A,2026-06-19T20:50:43.461312,1.00274060,.00019494,1.5225,286.5940,330.2076,30.4794,0,U,66990,999,205,0,-.13E-6,0
TJS-23,2025-306A,2026-06-19T14:16:57.791712,1.00266264,.00047213,5.5824,297.4738,175.3142,184.8406,0,U,67226,999,191,0,.1E-6,0
FENGYUN 4C,2025-312A,2026-06-20T06:37:03.612000,1.00271020,.0000333,0.0452,144.2582,54.3344,302.1536,0,U,67246,999,181,0,-.328E-5,0
SHIJIAN-29A (SJ-29A),2025-315A,2026-06-19T23:51:40.791168,1.00270134,.00032565,3.4059,95.0377,24.1702,220.0928,0,U,67302,999,164,0,-.73E-6,0
SHIJIAN-29B (SJ-29B),2025-315C,2026-06-19T23:51:40.727232,1.00270033,.00040531,3.4048,95.0306,35.0122,209.2957,0,U,67403,999,171,0,-.73E-6,0
ELEKTRO-L 5,2026-028A,2026-06-19T01:06:42.856704,1.00272310,.00017506,0.2484,312.3029,179.8010,227.8993,0,U,67756,999,127,0,-.104E-5,0
