AGILA                   
1 62456U 24252C   26170.85178840 -.00000187  00000+0  00000+0 0  9990
2 62456   0.0631 124.0672 0001227 335.8488 266.9535  1.00271225  5188
NUVIEW BRAVO            
1 62457U 24252D   26170.52007537 -.00000221  00000+0  00000+0 0  9998
2 62457   0.0730 148.3355 0002003 335.0483 248.4616  1.00271888  3814
THURAYA-4               
1 62483U 25001A   26170.83040531  .00000134  00000+0  00000+0 0  9997
2 62483   0.0257  66.7781 0000133 235.5501 308.9669  1.00272692  4208
SHIJIAN-25 (SJ-25)      
1 62485U 25002A   26170.75248455 -.00000358  00000+0  00000+0 0  9995
2 62485   5.1202  61.1532 0052036 173.4051  71.5038  1.00262116  5381
TJS-14                  
1 62804U 25017A   26170.82529197  .00000110  00000+0  00000+0 0  9994
2 62804   0.7755 295.8382 0000879 282.1687   5.5719  1.00275774  5297
SPAINSAT NG I           
1 62852U 25021A   26170.82737197  .00000146  00000+0  00000+0 0  9992
2 62852   0.0193 359.2101 0000168 183.9939  51.6877  1.00272257  4011
QZS-6 (MICHIBIKI-6)     
1 62876U 25023A   26170.95439049 -.00000238  00000+0  00000+0 0  9992
2 62876   0.0603  73.3312 0001871  19.6281 249.3015  1.00270132  4973
ZHONGXING-10R           
1 63075U 25036A   26170.95651575 -.00000357  00000+0  00000+0 0  9990
2 63075   0.0050 242.7520 0003587 256.0495 224.2520  1.00270711  4981
TJS-15                  
1 63157U 25045A   26170.76765458 -.00000270  00000+0  00000+0 0  9990
2 63157   0.2929  85.4692 0004637 298.6464 254.6176  1.00270698  4782
TIANLIAN 2-04           
1 63361U 25062A   26170.96453529 -.00000140  00000+0  00000+0 0  9997
2 63361   4.3664 274.4008 0031575  10.3984  50.6734  1.00271962  4631
TJS-16                  
1 63397U 25064A   26170.71089339 -.00000111  00000+0  00000+0 0  9993
2 63397   1.1057  81.4481 0003316 291.9066 311.1070  1.00271600  4415
TJS-17                  
1 63524U 25073A   26170.71167340 -.00000075  00000+0  00000+0 0  9993
2 63524   1.0716  82.6782 0002058 300.7675 305.2332  1.00272517  4314
TIANLIAN 2-05           
1 63662U 25084A   26170.75155447  .00000118  00000+0  00000+0 0  9994
2 63662   4.4437 279.8090 0003174 148.7420 130.3217  1.00271979  4404
TJS-19                  
1 63924U 25097A   26170.76933219 -.00000282  00000+0  00000+0 0  9994
2 63924   3.2813 317.4993 0002894 247.7476 120.8851  1.00275756  4179
CHINASAT 3B             
1 64062U 25106A   26170.92605017 -.00000051  00000+0  00000+0 0  9993
2 64062   0.0316 127.6515 0002996 356.8767 284.2969  1.00270413  4085
SXM-10                  
1 64290U 25122A   26170.86998848 -.00000022  00000+0  00000+0 0  9992
2 64290   0.0212  35.1232 0001968 328.0516 101.9386  1.00271156  3715
COSMOS 2589             
1 64467U 25131A   26170.77238926 -.00000296  00000+0  00000+0 0  9995
2 64467   0.0416  86.6775 0000210  22.0919 175.2579  1.00271484  3584
CHINASAT 9C             
1 64470U 25132A   26170.85650295 -.00000253  00000+0  00000+0 0  9999
2 64470   0.0137  55.1973 0003046  31.8968 221.5002  1.00273527  4173
MTG-S1                  
1 64723U 25143A   26170.85322422 -.00000008  00000+0  00000+0 0  9998
2 64723   0.6006 339.6139 0000853 293.0042 299.8767  1.00399499  3449
DROR 1                  
1 64784U 25148A   26170.85322422 -.00000040  00000+0  00000+0 0  9996
2 64784   0.0425  71.5354 0002627 319.0097 180.6755  1.00271188  3321
SHIYAN-29               
1 65486U 25196A   26170.05608662 -.00000285  00000+0  00000+0 0  9995
2 65486  28.8236  18.5119 0012575 177.3619 186.2317  1.00284876  2904
NUSANTARA LIMA (NUSANT*)
1 65588U 25205A   26170.81413854 -.00000363  00000+0  00000+0 0  9997
2 65588   0.0399 170.6518 0000081  80.8010  62.5181  1.00268357  2747
TJS-20                  
1 66142U 25238A   26170.83402118  .00000019  00000+0  00000+0 0  9990
2 66142   5.4625 299.5501 0004243 158.1224 173.0859  1.00266954  2356
CMS-03 (GSAT-7R)        
1 66311U 25249B   26170.95892262 -.00000082  00000+0  00000+0 0  9997
2 66311   0.0132  73.4065 0001666   9.7340 244.2288  1.00271395  2372
VIASAT-3 F2             
1 66454U 25261A   26170.87735519 -.00000239  00000+0  00000+0 0  9995
2 66454   0.0363 174.4747 0000047 277.7870  52.7047  1.00270370  2829
SHIJIAN-28 (SJ-28)      
1 66549U 25277A   26170.77347895 -.00000365  00000+0  00000+0 0  9992
2 66549   4.5306 272.0937 0001176  39.2721 351.8449  1.00276308  2181
TJS-22                  
1 66990U 25290A   26170.86855858 -.00000013  00000+0  00000+0 0  9990
2 66990   1.5225 286.5940 0001949 330.2076  30.4794  1.00274060  2059
TJS-23                  
1 67226U 25306A   26170.59511333  .00000010  00000+0  00000+0 0  9994
2 67226   5.5824 297.4738 0004721 175.3142 184.8406  1.00266264  1915
FENGYUN 4C              
1 67246U 25312A   26171.27573625 -.00000328  00000+0  00000+0 0  9994
2 67246   0.0452 144.2582 0000333  54.3344 302.1536  1.00271020  1819
SHIJIAN-29A (SJ-29A)    
1 67302U 25315A   26170.99422212 -.00000073  00000+0  00000+0 0  9990
2 67302   3.4059  95.0377 0003256  24.1702 220.0928  1.00270134  1646
SHIJIAN-29B (SJ-29B)    
1 67403U 25315C   26170.99422138 -.00000073  00000+0  00000+0 0  9999
2 67403   3.4048  95.0306 0004053  35.0122 209.2957  1.00270033  1718
ELEKTRO-L 5             
1 67756U 26028A   26170.04632936 -.00000104  00000+0  00000+0 0  9992
2 67756   0.2484 312.3029 0001750 179.8010 227.8993  1.00272310  1276
